BANDWAGON-4 OBJECT D    
1 66296U 25248D   26202.28542762  .00004603  00000+0  20975-3 0  9996
2 66296  45.4061 297.1249 0006403 260.4132  99.6031 15.22077764 39726
SEMI-1N                 
1 66297U 25248E   26203.31594414  .00004309  00000+0  20124-3 0  9992
2 66297  45.4134 289.7396 0010920 241.7985 118.1800 15.21345502 39903
SEMI-1P                 
1 66298U 25248F   26202.65994000  .00007118  00000+0  32396-3 0  9999
2 66298  45.3825 294.6731 0013251 228.3845 131.5907 15.21329339 39787
FGN-100-D2              
1 66299U 25248G   26203.30292956  .00003773  00000+0  18101-3 0  9995
2 66299  45.4002 292.7913 0005933 253.1660 106.8575 15.20730402 39867
ICEYE-X65               
1 66300U 25248H   26202.33437557  .00002195  00000+0  15652-3 0  9993
2 66300  45.4068 314.6149 0006027 230.0115 130.0238 15.07954753 40679
ICEYE-X66               
1 66301U 25248J   26203.31987199  .00003104  00000+0  20766-3 0  9998
2 66301  45.4022 308.4383 0005771 230.7144 129.3227 15.09212947 40814
ICEYE-X67               
1 66302U 25248K   26202.35173773  .00002268  00000+0  15604-3 0  9992
2 66302  45.4070 313.1216 0007150 226.9469 133.0815 15.09186763 40682
STARCLOUD-1             
1 66303U 25248L   26202.30203949  .00003295  00000+0  15578-3 0  9998
2 66303  45.4016 297.1588 0006424 244.7392 115.2830 15.21601124 39732
BANDWAGON-4 OBJECT M    
1 66304U 25248M   26202.31107764  .00012953  00000+0  46481-3 0  9996
2 66304  45.4187 288.4229 0011190 263.5402  96.4214 15.28705878 38557
BANDWAGON-4 OBJECT N    
1 66305U 25248N   26202.29576842  .00012722  00000+0  45414-3 0  9990
2 66305  45.4220 288.3301 0011648 255.4602 104.4996 15.28887476 37692
BANDWAGON-4 OBJECT P    
1 66306U 25248P   26202.28225873  .00011462  00000+0  41664-3 0  9998
2 66306  45.4029 288.8688 0013643 267.6025  92.3303 15.28361427 39810
BANDWAGON-4 OBJECT Q    
1 66307U 25248Q   26202.30751998  .00012470  00000+0  45584-3 0  9999
2 66307  45.3897 288.9092 0012179 260.9570  98.9941 15.28117904 39827
TOMORROW-S8             
1 66308U 25248R   26202.59312740  .00003682  00000+0  17682-3 0  9992
2 66308  45.3975 296.6796 0005174 233.9483 126.0924 15.20763223 39751
TOMORROW-S9             
1 66309U 25248S   26202.29659489  .00002401  00000+0  11971-3 0  9997
2 66309  45.4055 298.8423 0004930 255.7733 104.2606 15.20769392 39705
CMS-03 (GSAT-7R)        
1 66311U 25249B   26203.13000876  .00000000  00000+0  00000+0 0  9995
2 66311   0.0234  63.8578 0002552  55.3690 301.4517  1.00270494  2692
YAOGAN-46               
1 66313U 25250A   26202.40042765 -.00000035  00000+0  00000+0 0  9990
2 66313  20.0781 316.6517 0004851 181.3700 178.6544  5.31209537 13910
SENTINEL-1D             
1 66315U 25251A   26203.00132283  .00000081  00000+0  26831-4 0  9990
2 66315  98.1830 209.8711 0001390  92.8164 267.3194 14.59198494 37807
QPS-SAR-14 (YACHIHOKO-I)
1 66316U 25252A   26203.22481867  .00003589  00000+0  29989-3 0  9993
2 66316  42.0048 299.1748 0004215 130.7420 229.3772 14.99785300 38774
STARLINK-35442          
1 66319U 25253A   26203.27408694  .00018327  00000+0  67335-3 0  9992
2 66319  43.0010 172.7771 0002216 280.3264  79.7337 15.27604722 40829
STARLINK-34616          
1 66320U 25253B   26202.95857596  .00014730  00000+0  54357-3 0  9991
2 66320  43.0018 173.8431 0000687 262.0483  98.0291 15.27590261 40863
STARLINK-34615          
1 66321U 25253C   26202.98426670  .00020237  00000+0  74248-3 0  9990
2 66321  42.9994 174.0138 0001629 249.5941 110.4735 15.27598229 40783
STARLINK-35292          
1 66322U 25253D   26203.29963918  .00021804  00000+0  79884-3 0  9999
2 66322  43.0032 172.1112 0001849 308.0196  52.0489 15.27608260 40837
STARLINK-35309          
1 66323U 25253E   26203.27537248  .00024508  00000+0  89655-3 0  9992
2 66323  43.0000 172.7753 0000946 268.6577  91.4166 15.27603024 40822
STARLINK-35506          
1 66324U 25253F   26203.28935700  .00023724  00000+0  86808-3 0  9995
2 66324  43.0015 172.0235 0001548 262.3800  97.6876 15.27609219 40835
STARLINK-35504          
1 66325U 25253G   26203.27794506  .00014697  00000+0  54226-3 0  9990
2 66325  42.9982 172.8011 0001010 266.0362  94.0374 15.27595744 40825
STARLINK-35479          
1 66326U 25253H   26202.99198045  .00021257  00000+0  77906-3 0  9995
2 66326  42.9990 174.0895 0001746 281.4481  78.6175 15.27608791 40787
STARLINK-35507          
1 66327U 25253J   26203.29706840  .00012877  00000+0  47618-3 0  9993
2 66327  43.0015 172.0835 0001501 270.3447  89.7233 15.27612773 40837
STARLINK-35460          
1 66328U 25253K   26202.94330144  .00013860  00000+0  51190-3 0  9998
2 66328  42.9992 174.5879 0001072 268.3455  91.7274 15.27600720 40774
STARLINK-35505          
1 66329U 25253L   26202.00733342  .00010172  00000+0  37859-3 0  9992
2 66329  43.0006 179.6041 0002993 303.3827  56.6738 15.27584859 40630
STARLINK-35512          
1 66330U 25253M   26202.93687732  .00016415  00000+0  60451-3 0  9997
2 66330  42.9998 174.5430 0001523 270.4830  89.5847 15.27590224 40776
