OBJECT_NAME,OBJECT_ID,EPOCH,MEAN_MOTION,ECCENTRICITY,INCLINATION,RA_OF_ASC_NODE,ARG_OF_PERICENTER,MEAN_ANOMALY,EPHEMERIS_TYPE,CLASSIFICATION_TYPE,NORAD_CAT_ID,ELEMENT_SET_NO,REV_AT_EPOCH,BSTAR,MEAN_MOTION_DOT,MEAN_MOTION_DDOT
BANDWAGON-4 OBJECT D,2025-248D,2026-07-21T06:51:00.946368,15.22077764,.00064034,45.4061,297.1249,260.4132,99.6031,0,U,66296,999,3972,.20974692E-3,.4603E-4,0
SEMI-1N,2025-248E,2026-07-22T07:34:57.573696,15.21345502,.00109209,45.4134,289.7396,241.7985,118.1800,0,U,66297,999,3990,.20123618E-3,.4309E-4,0
SEMI-1P,2025-248F,2026-07-21T15:50:18.816000,15.21329339,.00132516,45.3825,294.6731,228.3845,131.5907,0,U,66298,999,3978,.32396009E-3,.7118E-4,0
FGN-100-D2,2025-248G,2026-07-22T07:16:13.113984,15.20730402,.00059337,45.4002,292.7913,253.1660,106.8575,0,U,66299,999,3986,.18100898E-3,.3773E-4,0
ICEYE-X65,2025-248H,2026-07-21T08:01:30.049248,15.07954753,.00060271,45.4068,314.6149,230.0115,130.0238,0,U,66300,999,4067,.15652033E-3,.2195E-4,0
ICEYE-X66,2025-248J,2026-07-22T07:40:36.939936,15.09212947,.0005771,45.4022,308.4383,230.7144,129.3227,0,U,66301,999,4081,.20765796E-3,.3104E-4,0
ICEYE-X67,2025-248K,2026-07-21T08:26:30.139872,15.09186763,.000715,45.4070,313.1216,226.9469,133.0815,0,U,66302,999,4068,.15604104E-3,.2268E-4,0
STARCLOUD-1,2025-248L,2026-07-21T07:14:56.211936,15.21601124,.00064249,45.4016,297.1588,244.7392,115.2830,0,U,66303,999,3973,.15577934E-3,.3295E-4,0
BANDWAGON-4 OBJECT M,2025-248M,2026-07-21T07:27:57.108096,15.28705878,.00111908,45.4187,288.4229,263.5402,96.4214,0,U,66304,999,3855,.46481179E-3,.12953E-3,0
BANDWAGON-4 OBJECT N,2025-248N,2026-07-21T07:05:54.391488,15.28887476,.00116482,45.4220,288.3301,255.4602,104.4996,0,U,66305,999,3769,.4541394E-3,.12722E-3,0
BANDWAGON-4 OBJECT P,2025-248P,2026-07-21T06:46:27.154272,15.28361427,.00136436,45.4029,288.8688,267.6025,92.3303,0,U,66306,999,3981,.41663825E-3,.11462E-3,0
BANDWAGON-4 OBJECT Q,2025-248Q,2026-07-21T07:22:49.726272,15.28117904,.00121794,45.3897,288.9092,260.9570,98.9941,0,U,66307,999,3982,.45584056E-3,.1247E-3,0
TOMORROW-S8,2025-248R,2026-07-21T14:14:06.207360,15.20763223,.00051748,45.3975,296.6796,233.9483,126.0924,0,U,66308,999,3975,.17682192E-3,.3682E-4,0
TOMORROW-S9,2025-248S,2026-07-21T07:07:05.798496,15.20769392,.00049301,45.4055,298.8423,255.7733,104.2606,0,U,66309,999,3970,.11970531E-3,.2401E-4,0
CMS-03 (GSAT-7R),2025-249B,2026-07-22T03:07:12.756864,1.00270494,.00025529,0.0234,63.8578,55.3690,301.4517,0,U,66311,999,269,0,0,0
YAOGAN-46,2025-250A,2026-07-21T09:36:36.948960,5.31209537,.0004851,20.0781,316.6517,181.3700,178.6544,0,U,66313,999,1391,0,-.35E-6,0
SENTINEL-1D,2025-251A,2026-07-22T00:01:54.292512,14.59198494,.00013904,98.1830,209.8711,92.8164,267.3194,0,U,66315,999,3780,.26831472E-4,.81E-6,0
QPS-SAR-14 (YACHIHOKO-I),2025-252A,2026-07-22T05:23:44.333088,14.99785300,.00042158,42.0048,299.1748,130.7420,229.3772,0,U,66316,999,3877,.29989271E-3,.3589E-4,0
STARLINK-35442,2025-253A,2026-07-22T06:34:41.111616,15.27604722,.00022161,43.0010,172.7771,280.3264,79.7337,0,U,66319,999,4082,.67334576E-3,.18327E-3,0
STARLINK-34616,2025-253B,2026-07-21T23:00:20.962944,15.27590261,.00006877,43.0018,173.8431,262.0483,98.0291,0,U,66320,999,4086,.54357332E-3,.1473E-3,0
STARLINK-34615,2025-253C,2026-07-21T23:37:20.642880,15.27598229,.00016296,42.9994,174.0138,249.5941,110.4735,0,U,66321,999,4078,.74247526E-3,.20237E-3,0
STARLINK-35292,2025-253D,2026-07-22T07:11:28.825152,15.27608260,.00018494,43.0032,172.1112,308.0196,52.0489,0,U,66322,999,4083,.79884018E-3,.21804E-3,0
STARLINK-35309,2025-253E,2026-07-22T06:36:32.182272,15.27603024,.00009469,43.0000,172.7753,268.6577,91.4166,0,U,66323,999,4082,.89654968E-3,.24508E-3,0
STARLINK-35506,2025-253F,2026-07-22T06:56:40.444800,15.27609219,.00015487,43.0015,172.0235,262.3800,97.6876,0,U,66324,999,4083,.86807989E-3,.23724E-3,0
STARLINK-35504,2025-253G,2026-07-22T06:40:14.453184,15.27595744,.00010101,42.9982,172.8011,266.0362,94.0374,0,U,66325,999,4082,.54225586E-3,.14697E-3,0
STARLINK-35479,2025-253H,2026-07-21T23:48:27.110880,15.27608791,.00017462,42.9990,174.0895,281.4481,78.6175,0,U,66326,999,4078,.77905975E-3,.21257E-3,0
STARLINK-35507,2025-253J,2026-07-22T07:07:46.709760,15.27612773,.00015013,43.0015,172.0835,270.3447,89.7233,0,U,66327,999,4083,.47618118E-3,.12877E-3,0
STARLINK-35460,2025-253K,2026-07-21T22:38:21.244416,15.27600720,.00010727,42.9992,174.5879,268.3455,91.7274,0,U,66328,999,4077,.51190115E-3,.1386E-3,0
STARLINK-35505,2025-253L,2026-07-21T00:10:33.607488,15.27584859,.00029932,43.0006,179.6041,303.3827,56.6738,0,U,66329,999,4063,.37859011E-3,.10172E-3,0
STARLINK-35512,2025-253M,2026-07-21T22:29:06.200448,15.27590224,.00015238,42.9998,174.5430,270.4830,89.5847,0,U,66330,999,4077,.6045105E-3,.16415E-3,0
